[
    {
        "OBJECT_NAME": "COSMOS 2374 [GLONASS]",
        "OBJECT_ID": "2000-063C",
        "EPOCH": "2025-03-03T13:17:38.190336",
        "MEAN_MOTION": 2.13099471,
        "ECCENTRICITY": 0.0075899,
        "INCLINATION": 65.4374,
        "RA_OF_ASC_NODE": 329.5936,
        "ARG_OF_PERICENTER": 211.7172,
        "MEAN_ANOMALY": 330.2233,
        "EPHEMERIS_TYPE": 0,
        "CLASSIFICATION_TYPE": "U",
        "NORAD_CAT_ID": 26566,
        "ELEMENT_SET_NO": 999,
        "REV_AT_EPOCH": 18978,
        "BSTAR": 0,
        "MEAN_MOTION_DOT": -5.7e-07,
        "MEAN_MOTION_DDOT": 0
    },
    {
        "OBJECT_NAME": "COSMOS 2382 [GLONASS-M]",
        "OBJECT_ID": "2001-053A",
        "EPOCH": "2025-03-03T12:37:01.507296",
        "MEAN_MOTION": 2.13104948,
        "ECCENTRICITY": 0.0004734,
        "INCLINATION": 63.7725,
        "RA_OF_ASC_NODE": 74.1658,
        "ARG_OF_PERICENTER": 218.9212,
        "MEAN_ANOMALY": 311.0569,
        "EPHEMERIS_TYPE": 0,
        "CLASSIFICATION_TYPE": "U",
        "NORAD_CAT_ID": 26987,
        "ELEMENT_SET_NO": 999,
        "REV_AT_EPOCH": 18092,
        "BSTAR": 0,
        "MEAN_MOTION_DOT": 1.3e-07,
        "MEAN_MOTION_DDOT": 0
    },
    {
        "OBJECT_NAME": "COSMOS 2381 [GLONASS]",
        "OBJECT_ID": "2001-053B",
        "EPOCH": "2025-03-03T07:27:26.362656",
        "MEAN_MOTION": 2.13103812,
        "ECCENTRICITY": 0.0045568,
        "INCLINATION": 63.7755,
        "RA_OF_ASC_NODE": 74.1994,
        "ARG_OF_PERICENTER": 228.2657,
        "MEAN_ANOMALY": 224.2285,
        "EPHEMERIS_TYPE": 0,
        "CLASSIFICATION_TYPE": "U",
        "NORAD_CAT_ID": 26988,
        "ELEMENT_SET_NO": 999,
        "REV_AT_EPOCH": 18097,
        "BSTAR": 0,
        "MEAN_MOTION_DOT": 1.4e-07,
        "MEAN_MOTION_DDOT": 0
    },
    {
        "OBJECT_NAME": "COSMOS 2380 [GLONASS]",
        "OBJECT_ID": "2001-053C",
        "EPOCH": "2025-02-28T08:47:38.484960",
        "MEAN_MOTION": 2.13102875,
        "ECCENTRICITY": 0.0004817,
        "INCLINATION": 63.7668,
        "RA_OF_ASC_NODE": 74.2586,
        "ARG_OF_PERICENTER": 26.0536,
        "MEAN_ANOMALY": 155.1715,
        "EPHEMERIS_TYPE": 0,
        "CLASSIFICATION_TYPE": "U",
        "NORAD_CAT_ID": 26989,
        "ELEMENT_SET_NO": 999,
        "REV_AT_EPOCH": 18091,
        "BSTAR": 0,
        "MEAN_MOTION_DOT": 3.8e-07,
        "MEAN_MOTION_DDOT": 0
    },
    {
        "OBJECT_NAME": "COSMOS 2394 [GLONASS]",
        "OBJECT_ID": "2002-060A",
        "EPOCH": "2025-03-01T02:37:40.960704",
        "MEAN_MOTION": 2.13102274,
        "ECCENTRICITY": 0.000327,
        "INCLINATION": 65.6794,
        "RA_OF_ASC_NODE": 331.6212,
        "ARG_OF_PERICENTER": 340.4488,
        "MEAN_ANOMALY": 19.5856,
        "EPHEMERIS_TYPE": 0,
        "CLASSIFICATION_TYPE": "U",
        "NORAD_CAT_ID": 27617,
        "ELEMENT_SET_NO": 999,
        "REV_AT_EPOCH": 17264,
        "BSTAR": 0,
        "MEAN_MOTION_DOT": -4.5e-07,
        "MEAN_MOTION_DDOT": 0
    },
    {
        "OBJECT_NAME": "COSMOS 2396 [GLONASS]",
        "OBJECT_ID": "2002-060B",
        "EPOCH": "2025-02-28T06:41:40.462656",
        "MEAN_MOTION": 2.13099656,
        "ECCENTRICITY": 0.0004452,
        "INCLINATION": 65.6823,
        "RA_OF_ASC_NODE": 331.6441,
        "ARG_OF_PERICENTER": 155.4852,
        "MEAN_ANOMALY": 336.037,
        "EPHEMERIS_TYPE": 0,
        "CLASSIFICATION_TYPE": "U",
        "NORAD_CAT_ID": 27618,
        "ELEMENT_SET_NO": 999,
        "REV_AT_EPOCH": 17252,
        "BSTAR": 0,
        "MEAN_MOTION_DOT": -4.3e-07,
        "MEAN_MOTION_DDOT": 0
    },
    {
        "OBJECT_NAME": "COSMOS 2395 [GLONASS]",
        "OBJECT_ID": "2002-060C",
        "EPOCH": "2025-03-01T05:16:03.599904",
        "MEAN_MOTION": 2.13103528,
        "ECCENTRICITY": 0.0012003,
        "INCLINATION": 65.6943,
        "RA_OF_ASC_NODE": 331.7453,
        "ARG_OF_PERICENTER": 256.9486,
        "MEAN_ANOMALY": 259.3477,
        "EPHEMERIS_TYPE": 0,
        "CLASSIFICATION_TYPE": "U",
        "NORAD_CAT_ID": 27619,
        "ELEMENT_SET_NO": 999,
        "REV_AT_EPOCH": 17256,
        "BSTAR": 0,
        "MEAN_MOTION_DOT": -4.6e-07,
        "MEAN_MOTION_DDOT": 0
    },
    {
        "OBJECT_NAME": "COSMOS 2404 [GLONASS-M]",
        "OBJECT_ID": "2003-056A",
        "EPOCH": "2025-03-03T14:11:40.803072",
        "MEAN_MOTION": 2.13088158,
        "ECCENTRICITY": 0.0046832,
        "INCLINATION": 63.953,
        "RA_OF_ASC_NODE": 78.6725,
        "ARG_OF_PERICENTER": 70.6026,
        "MEAN_ANOMALY": 122.2326,
        "EPHEMERIS_TYPE": 0,
        "CLASSIFICATION_TYPE": "U",
        "NORAD_CAT_ID": 28112,
        "ELEMENT_SET_NO": 999,
        "REV_AT_EPOCH": 16519,
        "BSTAR": 0,
        "MEAN_MOTION_DOT": 1.7e-07,
        "MEAN_MOTION_DDOT": 0
    },
    {
        "OBJECT_NAME": "COSMOS 2402 [GLONASS]",
        "OBJECT_ID": "2003-056B",
        "EPOCH": "2025-03-03T03:04:38.777376",
        "MEAN_MOTION": 2.13104975,
        "ECCENTRICITY": 0.0047863,
        "INCLINATION": 63.9685,
        "RA_OF_ASC_NODE": 78.7937,
        "ARG_OF_PERICENTER": 74.1811,
        "MEAN_ANOMALY": 284.6734,
        "EPHEMERIS_TYPE": 0,
        "CLASSIFICATION_TYPE": "U",
        "NORAD_CAT_ID": 28113,
        "ELEMENT_SET_NO": 999,
        "REV_AT_EPOCH": 16520,
        "BSTAR": 0,
        "MEAN_MOTION_DOT": 2e-07,
        "MEAN_MOTION_DDOT": 0
    },
    {
        "OBJECT_NAME": "COSMOS 2403 [GLONASS]",
        "OBJECT_ID": "2003-056C",
        "EPOCH": "2025-03-03T09:01:07.450752",
        "MEAN_MOTION": 2.13104563,
        "ECCENTRICITY": 0.0056919,
        "INCLINATION": 63.9722,
        "RA_OF_ASC_NODE": 78.836,
        "ARG_OF_PERICENTER": 59.714,
        "MEAN_ANOMALY": 37.4464,
        "EPHEMERIS_TYPE": 0,
        "CLASSIFICATION_TYPE": "U",
        "NORAD_CAT_ID": 28114,
        "ELEMENT_SET_NO": 999,
        "REV_AT_EPOCH": 16521,
        "BSTAR": 0,
        "MEAN_MOTION_DOT": 1.8e-07,
        "MEAN_MOTION_DDOT": 0
    },
    {
        "OBJECT_NAME": "COSMOS 2411 [GLONASS]",
        "OBJECT_ID": "2004-053A",
        "EPOCH": "2025-03-03T08:08:38.677920",
        "MEAN_MOTION": 2.13103734,
        "ECCENTRICITY": 0.0007796,
        "INCLINATION": 63.9055,
        "RA_OF_ASC_NODE": 76.8821,
        "ARG_OF_PERICENTER": 231.2878,
        "MEAN_ANOMALY": 312.8391,
        "EPHEMERIS_TYPE": 0,
        "CLASSIFICATION_TYPE": "U",
        "NORAD_CAT_ID": 28508,
        "ELEMENT_SET_NO": 999,
        "REV_AT_EPOCH": 15708,
        "BSTAR": 0,
        "MEAN_MOTION_DOT": 1.7e-07,
        "MEAN_MOTION_DDOT": 0
    },
    {
        "OBJECT_NAME": "COSMOS 2413 [GLONASS-M]",
        "OBJECT_ID": "2004-053B",
        "EPOCH": "2025-03-02T06:41:08.029824",
        "MEAN_MOTION": 2.13096319,
        "ECCENTRICITY": 0.0004363,
        "INCLINATION": 63.9011,
        "RA_OF_ASC_NODE": 76.8658,
        "ARG_OF_PERICENTER": 220.1791,
        "MEAN_ANOMALY": 219.417,
        "EPHEMERIS_TYPE": 0,
        "CLASSIFICATION_TYPE": "U",
        "NORAD_CAT_ID": 28509,
        "ELEMENT_SET_NO": 999,
        "REV_AT_EPOCH": 15706,
        "BSTAR": 0,
        "MEAN_MOTION_DOT": 2.5e-07,
        "MEAN_MOTION_DDOT": 0
    },
    {
        "OBJECT_NAME": "COSMOS 2412 [GLONASS]",
        "OBJECT_ID": "2004-053C",
        "EPOCH": "2025-03-02T02:40:38.568000",
        "MEAN_MOTION": 2.13103306,
        "ECCENTRICITY": 0.0006929,
        "INCLINATION": 63.9095,
        "RA_OF_ASC_NODE": 76.9976,
        "ARG_OF_PERICENTER": 254.9943,
        "MEAN_ANOMALY": 95.0322,
        "EPHEMERIS_TYPE": 0,
        "CLASSIFICATION_TYPE": "U",
        "NORAD_CAT_ID": 28510,
        "ELEMENT_SET_NO": 999,
        "REV_AT_EPOCH": 15705,
        "BSTAR": 0,
        "MEAN_MOTION_DOT": 2.7e-07,
        "MEAN_MOTION_DDOT": 0
    }
]