26566,COSMOS 2374 [GLONASS],2000,675.74,-1.0,-,65.44,Inactive,0,MEO,Kazakhstan,Russia/USSR,Unknown,Unknown,Unknown,1 26566U 00063C   25062.55391424 -.00000057  00000+0  00000+0 0  9993,2 26566  65.4374 329.5936 0075899 211.7172 330.2233  2.13099471189787,2.13099471,0.0075899,MEO
26987,COSMOS 2382 [GLONASS-M],2001,675.72,-1.0,-,63.77,Inactive,0,MEO,Kazakhstan,Russia/USSR,Unknown,Unknown,Unknown,1 26987U 01053A   25062.52571189  .00000013  00000+0  00000+0 0  9996,2 26987  63.7725  74.1658 0004734 218.9212 311.0569  2.13104948180925,2.13104948,0.0004734,MEO
26988,COSMOS 2381 [GLONASS],2001,675.73,-1.0,-,63.78,Inactive,0,MEO,Kazakhstan,Russia/USSR,Unknown,Unknown,Unknown,1 26988U 01053B   25062.31072179  .00000014  00000+0  00000+0 0  9990,2 26988  63.7755  74.1994 0045568 228.2657 224.2285  2.13103812180973,2.13103812,0.0045568,MEO
26989,COSMOS 2380 [GLONASS],2001,675.73,-1.0,-,63.77,Inactive,0,MEO,Kazakhstan,Russia/USSR,Unknown,Unknown,Unknown,1 26989U 01053C   25059.36641765  .00000038  00000+0  00000+0 0  9991,2 26989  63.7668  74.2586 0004817  26.0536 155.1715  2.13102875180919,2.13102875,0.0004817,MEO
27617,COSMOS 2394 [GLONASS],2002,675.73,-1.0,-,65.68,Inactive,0,MEO,Kazakhstan,Russia/USSR,Unknown,Unknown,Unknown,1 27617U 02060A   25060.10950186 -.00000045  00000+0  00000+0 0  9992,2 27617  65.6794 331.6212 0003270 340.4488  19.5856  2.13102274172649,2.13102274,0.000327,MEO
27618,COSMOS 2396 [GLONASS],2002,675.74,-1.0,-,65.68,Inactive,0,MEO,Kazakhstan,Russia/USSR,Unknown,Unknown,Unknown,1 27618U 02060B   25059.27894054 -.00000043  00000+0  00000+0 0  9998,2 27618  65.6823 331.6441 0004452 155.4852 336.0370  2.13099656172523,2.13099656,0.0004452,MEO
27619,COSMOS 2395 [GLONASS],2002,675.73,-1.0,-,65.69,Inactive,0,MEO,Kazakhstan,Russia/USSR,Unknown,Unknown,Unknown,1 27619U 02060C   25060.21948611 -.00000046  00000+0  00000+0 0  9997,2 27619  65.6943 331.7453 0012003 256.9486 259.3477  2.13103528172565,2.13103528,0.0012003,MEO
28112,COSMOS 2404 [GLONASS-M],2003,675.78,-1.0,-,63.95,Inactive,0,MEO,Kazakhstan,Russia/USSR,Unknown,Unknown,Unknown,1 28112U 03056A   25062.59144448  .00000017  00000+0  00000+0 0  9998,2 28112  63.9530  78.6725 0046832  70.6026 122.2326  2.13088158165197,2.13088158,0.0046832,MEO
28113,COSMOS 2402 [GLONASS],2003,675.72,-1.0,-,63.97,Inactive,0,MEO,Kazakhstan,Russia/USSR,Unknown,Unknown,Unknown,1 28113U 03056B   25062.12822659  .00000020  00000+0  00000+0 0  9999,2 28113  63.9685  78.7937 0047863  74.1811 284.6734  2.13104975165205,2.13104975,0.0047863,MEO
28114,COSMOS 2403 [GLONASS],2003,675.72,-1.0,-,63.97,Inactive,0,MEO,Kazakhstan,Russia/USSR,Unknown,Unknown,Unknown,1 28114U 03056C   25062.37578068  .00000018  00000+0  00000+0 0  9996,2 28114  63.9722  78.8360 0056919  59.7140  37.4464  2.13104563165213,2.13104563,0.0056919,MEO
28508,COSMOS 2411 [GLONASS],2004,675.73,-1.0,-,63.9,Inactive,0,MEO,Kazakhstan,Russia/USSR,Unknown,Unknown,Unknown,1 28508U 04053A   25062.33933655  .00000017  00000+0  00000+0 0  9993,2 28508  63.9055  76.8821 0007796 231.2878 312.8391  2.13103734157087,2.13103734,0.0007796,MEO
28509,COSMOS 2413 [GLONASS-M],2004,675.75,-1.0,-,63.9,Inactive,0,MEO,Kazakhstan,Russia/USSR,Unknown,Unknown,Unknown,1 28509U 04053B   25061.27856516  .00000025  00000+0  00000+0 0  9995,2 28509  63.9011  76.8658 0004363 220.1791 219.4170  2.13096319157061,2.13096319,0.0004363,MEO
28510,COSMOS 2412 [GLONASS],2004,675.73,-1.0,-,63.91,Inactive,0,MEO,Kazakhstan,Russia/USSR,Unknown,Unknown,Unknown,1 28510U 04053C   25061.11155750  .00000027  00000+0  00000+0 0  9994,2 28510  63.9095  76.9976 0006929 254.9943  95.0322  2.13103306157054,2.13103306,0.0006929,MEO
